ONEWEB-0665             
1 55825U 23029AF  24187.60931691  .00000023  00000+0  27277-4 0  9991
2 55825  87.8957  71.2857 0002185  74.2728 285.8642 13.14501071 65927
ONEWEB-0666             
1 55826U 23029AG  24187.60161598  .00000024  00000+0  27411-4 0  9994
2 55826  87.9201  56.0479 0001618  94.7149 265.4169 13.20770362 67227
ONEWEB-0667             
1 55827U 23029AH  24187.59529908  .00000100  00000+0  21514-3 0  9998
2 55827  87.9200  55.9825 0002200  81.9153 278.2230 13.20773773 67210
ONEWEB-0669             
1 55828U 23029AJ  24187.59057304  .00000084  00000+0  17395-3 0  9998
2 55828  87.9200  56.0209 0002106 104.0329 256.1038 13.20771998 67214
ONEWEB-0670             
1 55829U 23029AK  24187.20653816  .00000273  00000+0  70087-3 0  9994
2 55829  87.8960  71.3724 0002414  81.9523 278.1880 13.14503783 65899
ONEWEB-0671             
1 55830U 23029AL  24187.44708646  .00000045  00000+0  79799-4 0  9991
2 55830  87.9149  86.6087 0002235  78.3531 281.7852 13.19724834 65023
ONEWEB-0672             
1 55831U 23029AM  24187.58582567 -.00000196  00000+0 -51396-3 0  9990
2 55831  87.9200  56.0058 0001613  89.2339 270.8979 13.20770234 67216
ONEWEB-0673             
1 55832U 23029AN  24187.42338686  .00000106  00000+0  23212-3 0  9990
2 55832  87.9147  86.5805 0002191  75.4541 284.6835 13.19724253 65028
